1 28163U 04005A   16107.17649683  .99999999  80343-5  50846-3 0  9999
2 28163  62.8606 306.2093 0183577 253.9848 222.5544 16.31216773 90564